TWILIGHT P              
1 67376U 26004P   26031.99259465  .00001955  00000+0  22005-3 0  9993
2 67376  97.7995  32.8180 0004658 202.8982 157.2028 14.87786563  3040
TWILIGHT Q              
1 67377U 26004Q   26030.51082351  .00145780  00000+0  15452-1 0  9990
2 67377  97.7999  31.3669 0006652 209.0200 151.0648 14.88280196  2815
TWILIGHT R              
1 67378U 26004R   26031.92634855  .00002187  00000+0  24585-3 0  9991
2 67378  97.7969  32.7456 0004061 212.1712 147.9257 14.87718729  3028
TWILIGHT S              
1 67379U 26004S   26031.99345028  .00002011  00000+0  22653-3 0  9990
2 67379  97.7973  32.8136 0004565 208.6212 151.4754 14.87727242  3037
TWILIGHT T              
1 67380U 26004T   26031.99221218  .00002302  00000+0  25784-3 0  9997
2 67380  97.7966  32.8136 0004081 207.2418 152.8585 14.87827954  3035
TWILIGHT U              
1 67381U 26004U   26029.09880990 -.00108713  00000+0 -12141-1 0  9990
2 67381  97.8008  29.9801 0002092 273.6119  86.4858 14.87635069  2606
TWILIGHT V              
1 67382U 26004V   26031.98950952  .00001874  00000+0  21006-3 0  9998
2 67382  97.7994  32.8220 0004066 191.9142 168.1979 14.88012650  3035
TWILIGHT W              
1 67383U 26004W   26031.99326011  .00002375  00000+0  26635-3 0  9993
2 67383  97.7970  32.8131 0004387 209.5916 150.5053 14.87745313  3038
TWILIGHT X              
1 67384U 26004X   26031.98774719  .00002987  00000+0  32927-3 0  9995
2 67384  97.7967  32.8201 0003518 192.1166 167.9967 14.88253225  3035
TWILIGHT Y              
1 67385U 26004Y   26031.98659481  .00004985  00000+0  54419-3 0  9994
2 67385  97.7978  32.8236 0003479 185.4611 174.6569 14.88346064  3039
TWILIGHT Z              
1 67386U 26004Z   26031.91795462  .00001954  00000+0  21706-3 0  9994
2 67386  97.7961  32.7571 0002264 182.4943 177.6263 14.88329201  3026
TWILIGHT AA             
1 67387U 26004AA  26031.91448293  .00004573  00000+0  49600-3 0  9995
2 67387  97.8010  32.7672 0003466 153.6132 206.5262 14.88656997  3026
