CCSDS_OMM_VERS = 2.0
CREATION_DATE  = 
ORIGINATOR     = 

OBJECT_NAME    = TWILIGHT P
OBJECT_ID      = 2026-004P
CENTER_NAME    = EARTH
REF_FRAME      = TEME
TIME_SYSTEM    = UTC
MEAN_ELEMENT_THEORY = SGP/SGP4

EPOCH          = 2026-01-31T23:49:20.177760
MEAN_MOTION    = 14.87786563
ECCENTRICITY   = .00046585
INCLINATION    = 97.7995
RA_OF_ASC_NODE = 32.8180
ARG_OF_PERICENTER = 202.8982
MEAN_ANOMALY   = 157.2028

EPHEMERIS_TYPE = 0
CLASSIFICATION_TYPE = U
NORAD_CAT_ID   = 67376
ELEMENT_SET_NO = 999
REV_AT_EPOCH   = 304
BSTAR          = .22005171E-3
MEAN_MOTION_DOT = .1955E-4
MEAN_MOTION_DDOT = 0

CCSDS_OMM_VERS = 2.0
CREATION_DATE  = 
ORIGINATOR     = 

OBJECT_NAME    = TWILIGHT Q
OBJECT_ID      = 2026-004Q
CENTER_NAME    = EARTH
REF_FRAME      = TEME
TIME_SYSTEM    = UTC
MEAN_ELEMENT_THEORY = SGP/SGP4

EPOCH          = 2026-01-30T12:15:35.151264
MEAN_MOTION    = 14.88280196
ECCENTRICITY   = .00066529
INCLINATION    = 97.7999
RA_OF_ASC_NODE = 31.3669
ARG_OF_PERICENTER = 209.0200
MEAN_ANOMALY   = 151.0648

EPHEMERIS_TYPE = 0
CLASSIFICATION_TYPE = U
NORAD_CAT_ID   = 67377
ELEMENT_SET_NO = 999
REV_AT_EPOCH   = 281
BSTAR          = .15452251E-1
MEAN_MOTION_DOT = .14578E-2
MEAN_MOTION_DDOT = 0

CCSDS_OMM_VERS = 2.0
CREATION_DATE  = 
ORIGINATOR     = 

OBJECT_NAME    = TWILIGHT R
OBJECT_ID      = 2026-004R
CENTER_NAME    = EARTH
REF_FRAME      = TEME
TIME_SYSTEM    = UTC
MEAN_ELEMENT_THEORY = SGP/SGP4

EPOCH          = 2026-01-31T22:13:56.514720
MEAN_MOTION    = 14.87718729
ECCENTRICITY   = .00040618
INCLINATION    = 97.7969
RA_OF_ASC_NODE = 32.7456
ARG_OF_PERICENTER = 212.1712
MEAN_ANOMALY   = 147.9257

EPHEMERIS_TYPE = 0
CLASSIFICATION_TYPE = U
NORAD_CAT_ID   = 67378
ELEMENT_SET_NO = 999
REV_AT_EPOCH   = 302
BSTAR          = .24584564E-3
MEAN_MOTION_DOT = .2187E-4
MEAN_MOTION_DDOT = 0

CCSDS_OMM_VERS = 2.0
CREATION_DATE  = 
ORIGINATOR     = 

OBJECT_NAME    = TWILIGHT S
OBJECT_ID      = 2026-004S
CENTER_NAME    = EARTH
REF_FRAME      = TEME
TIME_SYSTEM    = UTC
MEAN_ELEMENT_THEORY = SGP/SGP4

EPOCH          = 2026-01-31T23:50:34.104192
MEAN_MOTION    = 14.87727242
ECCENTRICITY   = .00045654
INCLINATION    = 97.7973
RA_OF_ASC_NODE = 32.8136
ARG_OF_PERICENTER = 208.6212
MEAN_ANOMALY   = 151.4754

EPHEMERIS_TYPE = 0
CLASSIFICATION_TYPE = U
NORAD_CAT_ID   = 67379
ELEMENT_SET_NO = 999
REV_AT_EPOCH   = 303
BSTAR          = .22653164E-3
MEAN_MOTION_DOT = .2011E-4
MEAN_MOTION_DDOT = 0

CCSDS_OMM_VERS = 2.0
CREATION_DATE  = 
ORIGINATOR     = 

OBJECT_NAME    = TWILIGHT T
OBJECT_ID      = 2026-004T
CENTER_NAME    = EARTH
REF_FRAME      = TEME
TIME_SYSTEM    = UTC
MEAN_ELEMENT_THEORY = SGP/SGP4

EPOCH          = 2026-01-31T23:48:47.132352
MEAN_MOTION    = 14.87827954
ECCENTRICITY   = .00040817
INCLINATION    = 97.7966
RA_OF_ASC_NODE = 32.8136
ARG_OF_PERICENTER = 207.2418
MEAN_ANOMALY   = 152.8585

EPHEMERIS_TYPE = 0
CLASSIFICATION_TYPE = U
NORAD_CAT_ID   = 67380
ELEMENT_SET_NO = 999
REV_AT_EPOCH   = 303
BSTAR          = .25783765E-3
MEAN_MOTION_DOT = .2302E-4
MEAN_MOTION_DDOT = 0

CCSDS_OMM_VERS = 2.0
CREATION_DATE  = 
ORIGINATOR     = 

OBJECT_NAME    = TWILIGHT U
OBJECT_ID      = 2026-004U
CENTER_NAME    = EARTH
REF_FRAME      = TEME
TIME_SYSTEM    = UTC
MEAN_ELEMENT_THEORY = SGP/SGP4

EPOCH          = 2026-01-29T02:22:17.175360
MEAN_MOTION    = 14.87635069
ECCENTRICITY   = .00020921
INCLINATION    = 97.8008
RA_OF_ASC_NODE = 29.9801
ARG_OF_PERICENTER = 273.6119
MEAN_ANOMALY   = 86.4858

EPHEMERIS_TYPE = 0
CLASSIFICATION_TYPE = U
NORAD_CAT_ID   = 67381
ELEMENT_SET_NO = 999
REV_AT_EPOCH   = 260
BSTAR          = -.12140991E-1
MEAN_MOTION_DOT = -.108713E-2
MEAN_MOTION_DDOT = 0

CCSDS_OMM_VERS = 2.0
CREATION_DATE  = 
ORIGINATOR     = 

OBJECT_NAME    = TWILIGHT V
OBJECT_ID      = 2026-004V
CENTER_NAME    = EARTH
REF_FRAME      = TEME
TIME_SYSTEM    = UTC
MEAN_ELEMENT_THEORY = SGP/SGP4

EPOCH          = 2026-01-31T23:44:53.622528
MEAN_MOTION    = 14.88012650
ECCENTRICITY   = .00040668
INCLINATION    = 97.7994
RA_OF_ASC_NODE = 32.8220
ARG_OF_PERICENTER = 191.9142
MEAN_ANOMALY   = 168.1979

EPHEMERIS_TYPE = 0
CLASSIFICATION_TYPE = U
NORAD_CAT_ID   = 67382
ELEMENT_SET_NO = 999
REV_AT_EPOCH   = 303
BSTAR          = .21005605E-3
MEAN_MOTION_DOT = .1874E-4
MEAN_MOTION_DDOT = 0

CCSDS_OMM_VERS = 2.0
CREATION_DATE  = 
ORIGINATOR     = 

OBJECT_NAME    = TWILIGHT W
OBJECT_ID      = 2026-004W
CENTER_NAME    = EARTH
REF_FRAME      = TEME
TIME_SYSTEM    = UTC
MEAN_ELEMENT_THEORY = SGP/SGP4

EPOCH          = 2026-01-31T23:50:17.673504
MEAN_MOTION    = 14.87745313
ECCENTRICITY   = .00043876
INCLINATION    = 97.7970
RA_OF_ASC_NODE = 32.8131
ARG_OF_PERICENTER = 209.5916
MEAN_ANOMALY   = 150.5053

EPHEMERIS_TYPE = 0
CLASSIFICATION_TYPE = U
NORAD_CAT_ID   = 67383
ELEMENT_SET_NO = 999
REV_AT_EPOCH   = 303
BSTAR          = .26634879E-3
MEAN_MOTION_DOT = .2375E-4
MEAN_MOTION_DDOT = 0

CCSDS_OMM_VERS = 2.0
CREATION_DATE  = 
ORIGINATOR     = 

OBJECT_NAME    = TWILIGHT X
OBJECT_ID      = 2026-004X
CENTER_NAME    = EARTH
REF_FRAME      = TEME
TIME_SYSTEM    = UTC
MEAN_ELEMENT_THEORY = SGP/SGP4

EPOCH          = 2026-01-31T23:42:21.357216
MEAN_MOTION    = 14.88253225
ECCENTRICITY   = .0003518
INCLINATION    = 97.7967
RA_OF_ASC_NODE = 32.8201
ARG_OF_PERICENTER = 192.1166
MEAN_ANOMALY   = 167.9967

EPHEMERIS_TYPE = 0
CLASSIFICATION_TYPE = U
NORAD_CAT_ID   = 67384
ELEMENT_SET_NO = 999
REV_AT_EPOCH   = 303
BSTAR          = .32926632E-3
MEAN_MOTION_DOT = .2987E-4
MEAN_MOTION_DDOT = 0

CCSDS_OMM_VERS = 2.0
CREATION_DATE  = 
ORIGINATOR     = 

OBJECT_NAME    = TWILIGHT Y
OBJECT_ID      = 2026-004Y
CENTER_NAME    = EARTH
REF_FRAME      = TEME
TIME_SYSTEM    = UTC
MEAN_ELEMENT_THEORY = SGP/SGP4

EPOCH          = 2026-01-31T23:40:41.791584
MEAN_MOTION    = 14.88346064
ECCENTRICITY   = .00034796
INCLINATION    = 97.7978
RA_OF_ASC_NODE = 32.8236
ARG_OF_PERICENTER = 185.4611
MEAN_ANOMALY   = 174.6569

EPHEMERIS_TYPE = 0
CLASSIFICATION_TYPE = U
NORAD_CAT_ID   = 67385
ELEMENT_SET_NO = 999
REV_AT_EPOCH   = 303
BSTAR          = .5441948E-3
MEAN_MOTION_DOT = .4985E-4
MEAN_MOTION_DDOT = 0

CCSDS_OMM_VERS = 2.0
CREATION_DATE  = 
ORIGINATOR     = 

OBJECT_NAME    = TWILIGHT Z
OBJECT_ID      = 2026-004Z
CENTER_NAME    = EARTH
REF_FRAME      = TEME
TIME_SYSTEM    = UTC
MEAN_ELEMENT_THEORY = SGP/SGP4

EPOCH          = 2026-01-31T22:01:51.279168
MEAN_MOTION    = 14.88329201
ECCENTRICITY   = .00022645
INCLINATION    = 97.7961
RA_OF_ASC_NODE = 32.7571
ARG_OF_PERICENTER = 182.4943
MEAN_ANOMALY   = 177.6263

EPHEMERIS_TYPE = 0
CLASSIFICATION_TYPE = U
NORAD_CAT_ID   = 67386
ELEMENT_SET_NO = 999
REV_AT_EPOCH   = 302
BSTAR          = .21705983E-3
MEAN_MOTION_DOT = .1954E-4
MEAN_MOTION_DDOT = 0

CCSDS_OMM_VERS = 2.0
CREATION_DATE  = 
ORIGINATOR     = 

OBJECT_NAME    = TWILIGHT AA
OBJECT_ID      = 2026-004AA
CENTER_NAME    = EARTH
REF_FRAME      = TEME
TIME_SYSTEM    = UTC
MEAN_ELEMENT_THEORY = SGP/SGP4

EPOCH          = 2026-01-31T21:56:51.325152
MEAN_MOTION    = 14.88656997
ECCENTRICITY   = .00034667
INCLINATION    = 97.8010
RA_OF_ASC_NODE = 32.7672
ARG_OF_PERICENTER = 153.6132
MEAN_ANOMALY   = 206.5262

EPHEMERIS_TYPE = 0
CLASSIFICATION_TYPE = U
NORAD_CAT_ID   = 67387
ELEMENT_SET_NO = 999
REV_AT_EPOCH   = 302
BSTAR          = .49599749E-3
MEAN_MOTION_DOT = .4573E-4
MEAN_MOTION_DDOT = 0

